<?xml version="1.0" encoding="UTF-8"?>
<kml xmlns="http://www.opengis.net/kml/2.2" xmlns:gx="http://www.google.com/kml/ext/2.2">
    <Document id="1">
        <Placemark id="3">
            <name>Flood Extent</name>
            <Polygon id="2">
                <outerBoundaryIs>
                    <LinearRing id="4">
                        <coordinates>94.12560186848724,27.6,0.0 94.12560186848724,27.599730506647504,0.0 94.12533237513475,27.599730506647504,0.0 94.12533237513475,27.599461013295006,0.0 94.12506288178224,27.599461013295006,0.0 94.12506288178224,27.599191519942508,0.0 94.12479338842975,27.599191519942508,0.0 94.12479338842975,27.598922026590014,0.0 94.12452389507725,27.598922026590014,0.0 94.12452389507725,27.598383039885018,0.0 94.12425440172476,27.598383039885018,0.0 94.12425440172476,27.596766079770035,0.0 94.12452389507725,27.596766079770035,0.0 94.12452389507725,27.595418613007546,0.0 94.12425440172476,27.595418613007546,0.0 94.12425440172476,27.594610132950056,0.0 94.12452389507725,27.594610132950056,0.0 94.12452389507725,27.586255839022638,0.0 94.12425440172476,27.586255839022638,0.0 94.12425440172476,27.585447358965148,0.0 94.12452389507725,27.585447358965148,0.0 94.12452389507725,27.584369385555156,0.0 94.12425440172476,27.584369385555156,0.0 94.12425440172476,27.582482932087675,0.0 94.12452389507725,27.582482932087675,0.0 94.12452389507725,27.581674452030185,0.0 94.12425440172476,27.581674452030185,0.0 94.12425440172476,27.580865971972692,0.0 94.12452389507725,27.580865971972692,0.0 94.12452389507725,27.57817103844772,0.0 94.12425440172476,27.57817103844772,0.0 94.12425440172476,27.57628458498024,0.0 94.12452389507725,27.57628458498024,0.0 94.12452389507725,27.575476104922746,0.0 94.12425440172476,27.575476104922746,0.0 94.12425440172476,27.573859144807763,0.0 94.12452389507725,27.573859144807763,0.0 94.12452389507725,27.572781171397775,0.0 94.12425440172476,27.572781171397775,0.0 94.12425440172476,27.571164211282788,0.0 94.12452389507725,27.571164211282788,0.0 94.12452389507725,27.56819978440532,0.0 94.12425440172476,27.56819978440532,0.0 94.12425440172476,27.566852317642834,0.0 94.12452389507725,27.566852317642834,0.0 94.12452389507725,27.562809917355374,0.0 94.12425440172476,27.562809917355374,0.0 94.12425440172476,27.56200143729788,0.0 94.12452389507725,27.56200143729788,0.0 94.12452389507725,27.5601149838304,0.0 94.12425440172476,27.5601149838304,0.0 94.12425440172476,27.55930650377291,0.0 94.12452389507725,27.55930650377291,0.0 94.12452389507725,27.557420050305428,0.0 94.12425440172476,27.557420050305428,0.0 94.12425440172476,27.556342076895437,0.0 94.12452389507725,27.556342076895437,0.0 94.12452389507725,27.55229967660798,0.0 94.12425440172476,27.55229967660798,0.0 94.12425440172476,27.550143729788,0.0 94.12452389507725,27.550143729788,0.0 94.12452389507725,27.549335249730508,0.0 94.12425440172476,27.549335249730508,0.0 94.12425440172476,27.54610132950054,0.0 94.1296442687747,27.54610132950054,0.0 94.1296442687747,27.550682716492993,0.0 94.1293747754222,27.550682716492993,0.0 94.1293747754222,27.551760689902984,0.0 94.1296442687747,27.551760689902984,0.0 94.1296442687747,27.552838663312972,0.0 94.12991376212719,27.552838663312972,0.0 94.12991376212719,27.553647143370465,0.0 94.1296442687747,27.553647143370465,0.0 94.1296442687747,27.55418613007546,0.0 94.12991376212719,27.55418613007546,0.0 94.12991376212719,27.556072583542942,0.0 94.1296442687747,27.556072583542942,0.0 94.1296442687747,27.558767517067913,0.0 94.12991376212719,27.558767517067913,0.0 94.12991376212719,27.560653970535395,0.0 94.1296442687747,27.560653970535395,0.0 94.1296442687747,27.56119295724039,0.0 94.12991376212719,27.56119295724039,0.0 94.12991376212719,27.562270930650378,0.0 94.1296442687747,27.562270930650378,0.0 94.1296442687747,27.56604383758534,0.0 94.12991376212719,27.56604383758534,0.0 94.12991376212719,27.566852317642834,0.0 94.1296442687747,27.566852317642834,0.0 94.1296442687747,27.56793029105282,0.0 94.12991376212719,27.56793029105282,0.0 94.12991376212719,27.5703557312253,0.0 94.1296442687747,27.5703557312253,0.0 94.1296442687747,27.57520661157025,0.0 94.12991376212719,27.57520661157025,0.0 94.12991376212719,27.576015091627742,0.0 94.1296442687747,27.576015091627742,0.0 94.1296442687747,27.57682357168523,0.0 94.12991376212719,27.57682357168523,0.0 94.12991376212719,27.577632051742725,0.0 94.1296442687747,27.577632051742725,0.0 94.1296442687747,27.57844053180022,0.0 94.12991376212719,27.57844053180022,0.0 94.12991376212719,27.5803269852677,0.0 94.1296442687747,27.5803269852677,0.0 94.1296442687747,27.581674452030185,0.0 94.12991376212719,27.581674452030185,0.0 94.12991376212719,27.582752425440173,0.0 94.1296442687747,27.582752425440173,0.0 94.1296442687747,27.584638878907654,0.0 94.12991376212719,27.584638878907654,0.0 94.12991376212719,27.585447358965148,0.0 94.1296442687747,27.585447358965148,0.0 94.1296442687747,27.587603305785127,0.0 94.12991376212719,27.587603305785127,0.0 94.12991376212719,27.59407114624506,0.0 94.1296442687747,27.59407114624506,0.0 94.1296442687747,27.59595759971254,0.0 94.12991376212719,27.59595759971254,0.0 94.12991376212719,27.598383039885018,0.0 94.1296442687747,27.598383039885018,0.0 94.1296442687747,27.598922026590014,0.0 94.1293747754222,27.598922026590014,0.0 94.1293747754222,27.599191519942508,0.0 94.1291052820697,27.599191519942508,0.0 94.1291052820697,27.599461013295006,0.0 94.12883578871721,27.599461013295006,0.0 94.12883578871721,27.599730506647504,0.0 94.1285662953647,27.599730506647504,0.0 94.1285662953647,27.6,0.0 94.12560186848724,27.6,0.0</coordinates>
                    </LinearRing>
                </outerBoundaryIs>
            </Polygon>
        </Placemark>
    </Document>
</kml>
